{
  "type": "FeatureCollection",
  "features": [
    {
      "type": "Feature",
      "properties": {
        "norad_id": 33886,
        "name": "IRIDIUM 33 DEB",
        "group": "iridium-33-debris",
        "lat": -57.02935046777236,
        "lon": -110.56102008243745,
        "alt_km": 770.2757919364567,
        "timestamp": "2025-12-20T18:51:32.097919+00:00",
        "meta_object_name": "IRIDIUM 33 DEB",
        "meta_object_id": "1997-051BF",
        "meta_epoch": "2025-12-20T04:30:59.629824",
        "meta_mean_motion": 14.36060026,
        "meta_eccentricity": 0.00129406,
        "meta_inclination": 86.3824,
        "meta_ra_of_asc_node": 64.0937,
        "meta_arg_of_pericenter": 214.8028,
        "meta_mean_anomaly": 174.7554,
        "meta_ephemeris_type": 0,
        "meta_classification_type": "U",
        "meta_norad_cat_id": 33886,
        "meta_element_set_no": 999,
        "meta_rev_at_epoch": 88159,
        "meta_bstar": 0.00013722788,
        "meta_mean_motion_dot": 4.19e-06,
        "meta_mean_motion_ddot": 0,
        "tle_line1": "1 33886U 97051BF  25354.18819016  .00000419  00000+0  13723-3 0  9995",
        "tle_line2": "2 33886  86.3824  64.0937 0012940 214.8028 174.7554 14.36060026881593"
      },
      "geometry": {
        "type": "Point",
        "coordinates": [
          -110.56102008243745,
          -57.02935046777236
        ]
      }
    },
    {
      "type": "Feature",
      "properties": {
        "norad_id": 33887,
        "name": "IRIDIUM 33 DEB",
        "group": "iridium-33-debris",
        "lat": -27.19184369322046,
        "lon": -178.1722700256323,
        "alt_km": 769.877547020551,
        "timestamp": "2025-12-20T18:51:32.097930+00:00",
        "meta_object_name": "IRIDIUM 33 DEB",
        "meta_object_id": "1997-051BG",
        "meta_epoch": "2025-12-20T01:28:45.668352",
        "meta_mean_motion": 14.37227129,
        "meta_eccentricity": 0.00051987,
        "meta_inclination": 86.3041,
        "meta_ra_of_asc_node": 0.2367,
        "meta_arg_of_pericenter": 196.9799,
        "meta_mean_anomaly": 225.7634,
        "meta_ephemeris_type": 0,
        "meta_classification_type": "U",
        "meta_norad_cat_id": 33887,
        "meta_element_set_no": 999,
        "meta_rev_at_epoch": 88270,
        "meta_bstar": 0.00010697181,
        "meta_mean_motion_dot": 3.38e-06,
        "meta_mean_motion_ddot": 0,
        "tle_line1": "1 33887U 97051BG  25354.06163968  .00000338  00000+0  10697-3 0  9998",
        "tle_line2": "2 33887  86.3041   0.2367 0005198 196.9799 225.7634 14.37227129882706"
      },
      "geometry": {
        "type": "Point",
        "coordinates": [
          -178.1722700256323,
          -27.19184369322046
        ]
      }
    },
    {
      "type": "Feature",
      "properties": {
        "norad_id": 33953,
        "name": "IRIDIUM 33 DEB",
        "group": "iridium-33-debris",
        "lat": -47.33180637304631,
        "lon": -125.77875888307946,
        "alt_km": 725.933033330034,
        "timestamp": "2025-12-20T18:51:32.097940+00:00",
        "meta_object_name": "IRIDIUM 33 DEB",
        "meta_object_id": "1997-051BN",
        "meta_epoch": "2025-12-20T03:06:09.003168",
        "meta_mean_motion": 14.55388304,
        "meta_eccentricity": 0.00179538,
        "meta_inclination": 86.3841,
        "meta_ra_of_asc_node": 50.5724,
        "meta_arg_of_pericenter": 80.2831,
        "meta_mean_anomaly": 309.4365,
        "meta_ephemeris_type": 0,
        "meta_classification_type": "U",
        "meta_norad_cat_id": 33953,
        "meta_element_set_no": 999,
        "meta_rev_at_epoch": 88411,
        "meta_bstar": 0.00068975836,
        "meta_mean_motion_dot": 3.021e-05,
        "meta_mean_motion_ddot": 0,
        "tle_line1": "1 33953U 97051BN  25354.12927087  .00003021  00000+0  68976-3 0  9994",
        "tle_line2": "2 33953  86.3841  50.5724 0017953  80.2831 309.4365 14.55388304884118"
      },
      "geometry": {
        "type": "Point",
        "coordinates": [
          -125.77875888307946,
          -47.33180637304631
        ]
      }
    },
    {
      "type": "Feature",
      "properties": {
        "norad_id": 33960,
        "name": "IRIDIUM 33 DEB",
        "group": "iridium-33-debris",
        "lat": -0.3453620555059586,
        "lon": 105.74195340871536,
        "alt_km": 618.4885818951107,
        "timestamp": "2025-12-20T18:51:32.097950+00:00",
        "meta_object_name": "IRIDIUM 33 DEB",
        "meta_object_id": "1997-051BV",
        "meta_epoch": "2025-12-20T14:00:18.900576",
        "meta_mean_motion": 14.85550436,
        "meta_eccentricity": 0.00074031,
        "meta_inclination": 86.2542,
        "meta_ra_of_asc_node": 285.8147,
        "meta_arg_of_pericenter": 48.6051,
        "meta_mean_anomaly": 130.7138,
        "meta_ephemeris_type": 0,
        "meta_classification_type": "U",
        "meta_norad_cat_id": 33960,
        "meta_element_set_no": 999,
        "meta_rev_at_epoch": 88983,
        "meta_bstar": 0.0018756443,
        "meta_mean_motion_dot": 0.00016261,
        "meta_mean_motion_ddot": 0,
        "tle_line1": "1 33960U 97051BV  25354.58355209  .00016261  00000+0  18756-2 0  9993",
        "tle_line2": "2 33960  86.2542 285.8147 0007403  48.6051 130.7138 14.85550436889833"
      },
      "geometry": {
        "type": "Point",
        "coordinates": [
          105.74195340871536,
          -0.3453620555059586
        ]
      }
    },
    {
      "type": "Feature",
      "properties": {
        "norad_id": 33966,
        "name": "IRIDIUM 33 DEB",
        "group": "iridium-33-debris",
        "lat": -7.027754310585456,
        "lon": -136.98010011597046,
        "alt_km": 725.459811419817,
        "timestamp": "2025-12-20T18:51:32.097961+00:00",
        "meta_object_name": "IRIDIUM 33 DEB",
        "meta_object_id": "1997-051CB",
        "meta_epoch": "2025-12-20T09:48:07.873344",
        "meta_mean_motion": 14.49621404,
        "meta_eccentricity": 0.00082754,
        "meta_inclination": 86.3914,
        "meta_ra_of_asc_node": 42.7361,
        "meta_arg_of_pericenter": 163.9635,
        "meta_mean_anomaly": 214.8558,
        "meta_ephemeris_type": 0,
        "meta_classification_type": "U",
        "meta_norad_cat_id": 33966,
        "meta_element_set_no": 999,
        "meta_rev_at_epoch": 88553,
        "meta_bstar": 0.00035675491,
        "meta_mean_motion_dot": 1.39e-05,
        "meta_mean_motion_ddot": 0,
        "tle_line1": "1 33966U 97051CB  25354.40842446  .00001390  00000+0  35675-3 0  9991",
        "tle_line2": "2 33966  86.3914  42.7361 0008275 163.9635 214.8558 14.49621404885535"
      },
      "geometry": {
        "type": "Point",
        "coordinates": [
          -136.98010011597046,
          -7.027754310585456
        ]
      }
    },
    {
      "type": "Feature",
      "properties": {
        "norad_id": 34071,
        "name": "IRIDIUM 33 DEB",
        "group": "iridium-33-debris",
        "lat": -69.35017120290213,
        "lon": -155.90361458530154,
        "alt_km": 741.4519926967159,
        "timestamp": "2025-12-20T18:51:32.097972+00:00",
        "meta_object_name": "IRIDIUM 33 DEB",
        "meta_object_id": "1997-051CE",
        "meta_epoch": "2025-12-20T07:46:13.736640",
        "meta_mean_motion": 14.49495052,
        "meta_eccentricity": 0.00099424,
        "meta_inclination": 86.3449,
        "meta_ra_of_asc_node": 14.5318,
        "meta_arg_of_pericenter": 87.1409,
        "meta_mean_anomaly": 273.0933,
        "meta_ephemeris_type": 0,
        "meta_classification_type": "U",
        "meta_norad_cat_id": 34071,
        "meta_element_set_no": 999,
        "meta_rev_at_epoch": 88444,
        "meta_bstar": 0.00041457819,
        "meta_mean_motion_dot": 1.609e-05,
        "meta_mean_motion_ddot": 0,
        "tle_line1": "1 34071U 97051CE  25354.32377010  .00001609  00000+0  41458-3 0  9999",
        "tle_line2": "2 34071  86.3449  14.5318 0009942  87.1409 273.0933 14.49495052884444"
      },
      "geometry": {
        "type": "Point",
        "coordinates": [
          -155.90361458530154,
          -69.35017120290213
        ]
      }
    },
    {
      "type": "Feature",
      "properties": {
        "norad_id": 34077,
        "name": "IRIDIUM 33 DEB",
        "group": "iridium-33-debris",
        "lat": 2.5188364374654273,
        "lon": -132.19602386907863,
        "alt_km": 686.420246384525,
        "timestamp": "2025-12-20T18:51:32.097982+00:00",
        "meta_object_name": "IRIDIUM 33 DEB",
        "meta_object_id": "1997-051CL",
        "meta_epoch": "2025-12-20T09:55:26.414688",
        "meta_mean_motion": 14.64912612,
        "meta_eccentricity": 0.00093193,
        "meta_inclination": 86.3853,
        "meta_ra_of_asc_node": 48.1273,
        "meta_arg_of_pericenter": 14.8582,
        "meta_mean_anomaly": 0.412,
        "meta_ephemeris_type": 0,
        "meta_classification_type": "U",
        "meta_norad_cat_id": 34077,
        "meta_element_set_no": 999,
        "meta_rev_at_epoch": 88445,
        "meta_bstar": 0.00072672938,
        "meta_mean_motion_dot": 3.909e-05,
        "meta_mean_motion_ddot": 0,
        "tle_line1": "1 34077U 97051CL  25354.41350017  .00003909  00000+0  72673-3 0  9991",
        "tle_line2": "2 34077  86.3853  48.1273 0009319  14.8582   0.4120 14.64912612884453"
      },
      "geometry": {
        "type": "Point",
        "coordinates": [
          -132.19602386907863,
          2.5188364374654273
        ]
      }
    }
  ]
}